[{"OBJECT_NAME":"STARLINK-3612","OBJECT_ID":"2022-017C","EPOCH":"2026-03-09T22:45:39.042720","MEAN_MOTION":15.08842412,"ECCENTRICITY":0.0001348,"INCLINATION":53.2194,"RA_OF_ASC_NODE":337.9603,"ARG_OF_PERICENTER":82.8992,"MEAN_ANOMALY":277.2154,"EPHEMERIS_TYPE":0,"CLASSIFICATION_TYPE":"U","NORAD_CAT_ID":51770,"ELEMENT_SET_NO":999,"REV_AT_EPOCH":22265,"BSTAR":-3.9486148e-5,"MEAN_MOTION_DOT":-9.16e-6,"MEAN_MOTION_DDOT":0},{"OBJECT_NAME":"DMSP 5D-2 F11 DEB","OBJECT_ID":"1991-082AJ","EPOCH":"2026-03-09T06:39:32.486112","MEAN_MOTION":15.08629375,"ECCENTRICITY":0.00070318,"INCLINATION":98.5181,"RA_OF_ASC_NODE":189.4283,"ARG_OF_PERICENTER":237.8685,"MEAN_ANOMALY":152.6153,"EPHEMERIS_TYPE":0,"CLASSIFICATION_TYPE":"U","NORAD_CAT_ID":28321,"ELEMENT_SET_NO":999,"REV_AT_EPOCH":14288,"BSTAR":0.0082823802,"MEAN_MOTION_DOT":0.00131946,"MEAN_MOTION_DDOT":0}]
